{"type": "FeatureCollection", "features": [ {"type": "Feature", "properties": {"norad_id": 33867, "name": "IRIDIUM 33 DEB", "group": "iridium-33-debris", "lat": 35.91528502215155, "lon": 162.50075331097986, "alt_km": 286.10869706914946, "timestamp": "2025-12-22T04:03:39.553601+00:00", "meta": {"OBJECT_NAME": "IRIDIUM 33 DEB", "OBJECT_ID": "1997-051AL", "EPOCH": "2025-12-21T19:54:51.829056", "MEAN_MOTION": 15.90516397, "ECCENTRICITY": 0.0013415, "INCLINATION": 86.3664, "RA_OF_ASC_NODE": 345.3213, "ARG_OF_PERICENTER": 99.7758, "MEAN_ANOMALY": 260.5039, "EPHEMERIS_TYPE": 0, "CLASSIFICATION_TYPE": "U", "NORAD_CAT_ID": 33867, "ELEMENT_SET_NO": 999, "REV_AT_EPOCH": 89654, "BSTAR": 0.010104, "MEAN_MOTION_DOT": 0.02858314, "MEAN_MOTION_DDOT": 0.0062536}, "tle": {"line1": "1 33867U 97051AL  25355.82976654  .02858314  62536-2  10104-1 0  9998", "line2": "2 33867  86.3664 345.3213 0013415  99.7758 260.5039 15.90516397896545"}}, "geometry": {"type": "Point", "coordinates": [162.50075331097986, 35.91528502215155]}}, {"type": "Feature", "properties": {"norad_id": 33870, "name": "IRIDIUM 33 DEB", "group": "iridium-33-debris", "lat": 56.235336241025465, "lon": 59.66170168692324, "alt_km": 734.1840874771633, "timestamp": "2025-12-22T04:03:39.553612+00:00", "meta": {"OBJECT_NAME": "IRIDIUM 33 DEB", "OBJECT_ID": "1997-051AP", "EPOCH": "2025-12-21T16:45:39.931776", "MEAN_MOTION": 14.45892249, "ECCENTRICITY": 0.0022337, "INCLINATION": 86.3739, "RA_OF_ASC_NODE": 54.4207, "ARG_OF_PERICENTER": 149.5314, "MEAN_ANOMALY": 337.9924, "EPHEMERIS_TYPE": 0, "CLASSIFICATION_TYPE": "U", "NORAD_CAT_ID": 33870, "ELEMENT_SET_NO": 999, "REV_AT_EPOCH": 88266, "BSTAR": 0.00052329, "MEAN_MOTION_DOT": 1.884e-05, "MEAN_MOTION_DDOT": 0}, "tle": {"line1": "1 33870U 97051AP  25355.69837884  .00001884  00000+0  52329-3 0  9990", "line2": "2 33870  86.3739  54.4207 0022337 149.5314 337.9924 14.45892249882660"}}, "geometry": {"type": "Point", "coordinates": [59.66170168692324, 56.235336241025465]}}, {"type": "Feature", "properties": {"norad_id": 33881, "name": "IRIDIUM 33 DEB", "group": "iridium-33-debris", "lat": -68.93542926798901, "lon": 93.20096714199624, "alt_km": 747.2871201856842, "timestamp": "2025-12-22T04:03:39.553622+00:00", "meta": {"OBJECT_NAME": "IRIDIUM 33 DEB", "OBJECT_ID": "1997-051BA", "EPOCH": "2025-12-21T08:54:02.892384", "MEAN_MOTION": 14.56711951, "ECCENTRICITY": 0.00612443, "INCLINATION": 86.3865, "RA_OF_ASC_NODE": 102.9912, "ARG_OF_PERICENTER": 146.8792, "MEAN_ANOMALY": 279.602, "EPHEMERIS_TYPE": 0, "CLASSIFICATION_TYPE": "U", "NORAD_CAT_ID": 33881, "ELEMENT_SET_NO": 999, "REV_AT_EPOCH": 87626, "BSTAR": 0.0014450867, "MEAN_MOTION_DOT": 6.645e-05, "MEAN_MOTION_DDOT": 0}, "tle": {"line1": "1 33881U 97051BA  25355.37086681  .00006645  00000+0  14451-2 0  9991", "line2": "2 33881  86.3865 102.9912 0061244 146.8792 279.6020 14.56711951876264"}}, "geometry": {"type": "Point", "coordinates": [93.20096714199624, -68.93542926798901]}}, {"type": "Feature", "properties": {"norad_id": 33884, "name": "IRIDIUM 33 DEB", "group": "iridium-33-debris", "lat": -44.137547451066226, "lon": -170.90655157384498, "alt_km": 640.8033950337312, "timestamp": "2025-12-22T04:03:39.553633+00:00", "meta": {"OBJECT_NAME": "IRIDIUM 33 DEB", "OBJECT_ID": "1997-051BD", "EPOCH": "2025-12-21T19:42:17.168256", "MEAN_MOTION": 14.77591703, "ECCENTRICITY": 0.0008977, "INCLINATION": 86.3691, "RA_OF_ASC_NODE": 5.7181, "ARG_OF_PERICENTER": 287.8241, "MEAN_ANOMALY": 245.5748, "EPHEMERIS_TYPE": 0, "CLASSIFICATION_TYPE": "U", "NORAD_CAT_ID": 33884, "ELEMENT_SET_NO": 999, "REV_AT_EPOCH": 88981, "BSTAR": 0.0012316, "MEAN_MOTION_DOT": 8.831e-05, "MEAN_MOTION_DDOT": 0}, "tle": {"line1": "1 33884U 97051BD  25355.82103204  .00008831  00000+0  12316-2 0  9992", "line2": "2 33884  86.3691   5.7181 0008977 287.8241 245.5748 14.77591703889819"}}, "geometry": {"type": "Point", "coordinates": [-170.90655157384498, -44.137547451066226]}}, {"type": "Feature", "properties": {"norad_id": 33886, "name": "IRIDIUM 33 DEB", "group": "iridium-33-debris", "lat": -4.6304245448314365, "lon": -116.4466994355848, "alt_km": 766.5778792268648, "timestamp": "2025-12-22T04:03:39.553644+00:00", "meta": {"OBJECT_NAME": "IRIDIUM 33 DEB", "OBJECT_ID": "1997-051BF", "EPOCH": "2025-12-21T17:43:24.779136", "MEAN_MOTION": 14.36061544, "ECCENTRICITY": 0.0013109, "INCLINATION": 86.3822, "RA_OF_ASC_NODE": 63.441, "ARG_OF_PERICENTER": 209.4261, "MEAN_ANOMALY": 269.7829, "EPHEMERIS_TYPE": 0, "CLASSIFICATION_TYPE": "U", "NORAD_CAT_ID": 33886, "ELEMENT_SET_NO": 999, "REV_AT_EPOCH": 88181, "BSTAR": 0.00014921, "MEAN_MOTION_DOT": 4.54e-06, "MEAN_MOTION_DDOT": 0}, "tle": {"line1": "1 33886U 97051BF  25355.73848124  .00000454  00000+0  14921-3 0  9999", "line2": "2 33886  86.3822  63.4410 0013109 209.4261 269.7829 14.36061544881818"}}, "geometry": {"type": "Point", "coordinates": [-116.4466994355848, -4.6304245448314365]}}, {"type": "Feature", "properties": {"norad_id": 33887, "name": "IRIDIUM 33 DEB", "group": "iridium-33-debris", "lat": 19.43806051113966, "lon": 178.0213272737037, "alt_km": 764.5270818408026, "timestamp": "2025-12-22T04:03:39.553654+00:00", "meta": {"OBJECT_NAME": "IRIDIUM 33 DEB", "OBJECT_ID": "1997-051BG", "EPOCH": "2025-12-21T18:06:57.603168", "MEAN_MOTION": 14.37228506, "ECCENTRICITY": 0.0005394, "INCLINATION": 86.3041, "RA_OF_ASC_NODE": 359.5069, "ARG_OF_PERICENTER": 190.9714, "MEAN_ANOMALY": 346.844, "EPHEMERIS_TYPE": 0, "CLASSIFICATION_TYPE": "U", "NORAD_CAT_ID": 33887, "ELEMENT_SET_NO": 999, "REV_AT_EPOCH": 88294, "BSTAR": 0.00011881, "MEAN_MOTION_DOT": 3.73e-06, "MEAN_MOTION_DDOT": 0}, "tle": {"line1": "1 33887U 97051BG  25355.75483337  .00000373  00000+0  11881-3 0  9995", "line2": "2 33887  86.3041 359.5069 0005394 190.9714 346.8440 14.37228506882940"}}, "geometry": {"type": "Point", "coordinates": [178.0213272737037, 19.43806051113966]}}, {"type": "Feature", "properties": {"norad_id": 33953, "name": "IRIDIUM 33 DEB", "group": "iridium-33-debris", "lat": -86.28005655467376, "lon": -26.881818919184514, "alt_km": 727.6359051554, "timestamp": "2025-12-22T04:03:39.553665+00:00", "meta": {"OBJECT_NAME": "IRIDIUM 33 DEB", "OBJECT_ID": "1997-051BN", "EPOCH": "2025-12-21T03:57:52.116192", "MEAN_MOTION": 14.55395308, "ECCENTRICITY": 0.00178869, "INCLINATION": 86.3839, "RA_OF_ASC_NODE": 50.1227, "ARG_OF_PERICENTER": 77.1433, "MEAN_ANOMALY": 336.6692, "EPHEMERIS_TYPE": 0, "CLASSIFICATION_TYPE": "U", "NORAD_CAT_ID": 33953, "ELEMENT_SET_NO": 999, "REV_AT_EPOCH": 88426, "BSTAR": 0.0006943937, "MEAN_MOTION_DOT": 3.042e-05, "MEAN_MOTION_DDOT": 0}, "tle": {"line1": "1 33953U 97051BN  25355.16518653  .00003042  00000+0  69439-3 0  9992", "line2": "2 33953  86.3839  50.1227 0017886  77.1433 336.6692 14.55395308884260"}}, "geometry": {"type": "Point", "coordinates": [-26.881818919184514, -86.28005655467376]}}, {"type": "Feature", "properties": {"norad_id": 33960, "name": "IRIDIUM 33 DEB", "group": "iridium-33-debris", "lat": 13.771530271947501, "lon": -74.01291448182428, "alt_km": 608.4060130846137, "timestamp": "2025-12-22T04:03:39.553676+00:00", "meta": {"OBJECT_NAME": "IRIDIUM 33 DEB", "OBJECT_ID": "1997-051BV", "EPOCH": "2025-12-21T20:10:45.329088", "MEAN_MOTION": 14.85604614, "ECCENTRICITY": 0.00073, "INCLINATION": 86.2546, "RA_OF_ASC_NODE": 285.222, "ARG_OF_PERICENTER": 45.5917, "MEAN_ANOMALY": 13.1513, "EPHEMERIS_TYPE": 0, "CLASSIFICATION_TYPE": "U", "NORAD_CAT_ID": 33960, "ELEMENT_SET_NO": 999, "REV_AT_EPOCH": 89002, "BSTAR": 0.002534, "MEAN_MOTION_DOT": 0.00022006, "MEAN_MOTION_DDOT": 0}, "tle": {"line1": "1 33960U 97051BV  25355.84080242  .00022006  00000+0  25340-2 0  9996", "line2": "2 33960  86.2546 285.2220 0007300  45.5917  13.1513 14.85604614890028"}}, "geometry": {"type": "Point", "coordinates": [-74.01291448182428, 13.771530271947501]}}, {"type": "Feature", "properties": {"norad_id": 33966, "name": "IRIDIUM 33 DEB", "group": "iridium-33-debris", "lat": -21.97619981092653, "lon": -136.56031998036363, "alt_km": 727.9855346248851, "timestamp": "2025-12-22T04:03:39.553686+00:00", "meta": {"OBJECT_NAME": "IRIDIUM 33 DEB", "OBJECT_ID": "1997-051CB", "EPOCH": "2025-12-21T08:58:20.862048", "MEAN_MOTION": 14.49625093, "ECCENTRICITY": 0.00083762, "INCLINATION": 86.3913, "RA_OF_ASC_NODE": 42.3217, "ARG_OF_PERICENTER": 161.0555, "MEAN_ANOMALY": 212.7611, "EPHEMERIS_TYPE": 0, "CLASSIFICATION_TYPE": "U", "NORAD_CAT_ID": 33966, "ELEMENT_SET_NO": 999, "REV_AT_EPOCH": 88567, "BSTAR": 0.00039236704, "MEAN_MOTION_DOT": 1.527e-05, "MEAN_MOTION_DDOT": 0}, "tle": {"line1": "1 33966U 97051CB  25355.37385257  .00001527  00000+0  39237-3 0  9990", "line2": "2 33966  86.3913  42.3217 0008376 161.0555 212.7611 14.49625093885672"}}, "geometry": {"type": "Point", "coordinates": [-136.56031998036363, -21.97619981092653]}}, {"type": "Feature", "properties": {"norad_id": 34071, "name": "IRIDIUM 33 DEB", "group": "iridium-33-debris", "lat": -82.91949811097852, "lon": -135.29811125137482, "alt_km": 741.7754335212439, "timestamp": "2025-12-22T04:03:39.553697+00:00", "meta": {"OBJECT_NAME": "IRIDIUM 33 DEB", "OBJECT_ID": "1997-051CE", "EPOCH": "2025-12-21T18:33:48.284064", "MEAN_MOTION": 14.49501025, "ECCENTRICITY": 0.0009924, "INCLINATION": 86.3449, "RA_OF_ASC_NODE": 13.9015, "ARG_OF_PERICENTER": 83.2656, "MEAN_ANOMALY": 276.9677, "EPHEMERIS_TYPE": 0, "CLASSIFICATION_TYPE": "U", "NORAD_CAT_ID": 34071, "ELEMENT_SET_NO": 999, "REV_AT_EPOCH": 88465, "BSTAR": 0.0004564, "MEAN_MOTION_DOT": 1.769e-05, "MEAN_MOTION_DDOT": 0}, "tle": {"line1": "1 34071U 97051CE  25355.77347551  .00001769  00000+0  45640-3 0  9990", "line2": "2 34071  86.3449  13.9015 0009924  83.2656 276.9677 14.49501025884650"}}, "geometry": {"type": "Point", "coordinates": [-135.29811125137482, -82.91949811097852]}}]}